STARLINK-2125
1 27725C 21017D   21325.15555898  .00006564  00000-0  43989-3 0  3255
2 27725  53.0569  47.5304 0001266  68.7016 174.1802 15.06385602    11
